
    {
        "ARG_OF_PERICENTER": 41.9321,
        "BSTAR": 0.00020909311,
        "CLASSIFICATION_TYPE": "U",
        "ECCENTRICITY": 0.00096204,
        "ELEMENT_SET_NO": 999,
        "EPHEMERIS_TYPE": 0,
        "EPOCH": "2026-05-21T13:17:41.698176",
        "INCLINATION": 97.4267,
        "MEAN_ANOMALY": 318.2646,
        "MEAN_MOTION": 15.14272291,
        "MEAN_MOTION_DDOT": 0,
        "MEAN_MOTION_DOT": 3.764e-05,
        "NORAD_CAT_ID": 43759,
        "OBJECT_ID": "2018-099B",
        "OBJECT_NAME": "SIRION PATHFINDER-2",
        "RA_OF_ASC_NODE": 191.247,
        "REV_AT_EPOCH": 40859
    },
    {
        "ARG_OF_PERICENTER": 94.0235,
        "BSTAR": 0.00018390037,
        "CLASSIFICATION_TYPE": "U",
        "ECCENTRICITY": 0.00101054,
        "ELEMENT_SET_NO": 999,
        "EPHEMERIS_TYPE": 0,
        "EPOCH": "2026-05-21T14:10:42.613536",
        "INCLINATION": 97.4085,
        "MEAN_ANOMALY": 266.2151,
        "MEAN_MOTION": 15.12248212,
        "MEAN_MOTION_DDOT": 0,
        "MEAN_MOTION_DOT": 3.119e-05,
        "NORAD_CAT_ID": 43767,
        "OBJECT_ID": "2018-099K",
        "OBJECT_NAME": "CORVUS BC4",
        "RA_OF_ASC_NODE": 185.3519,
        "REV_AT_EPOCH": 40838
    },
    {
        "ARG_OF_PERICENTER": 238.9667,
        "BSTAR": 7.097789e-05,
        "CLASSIFICATION_TYPE": "U",
        "ECCENTRICITY": 0.00100569,
        "ELEMENT_SET_NO": 999,
        "EPHEMERIS_TYPE": 0,
        "EPOCH": "2026-05-21T12:16:55.782336",
        "INCLINATION": 97.8155,
        "MEAN_ANOMALY": 121.0572,
        "MEAN_MOTION": 15.04541732,
        "MEAN_MOTION_DDOT": 0,
        "MEAN_MOTION_DOT": 9.31e-06,
        "NORAD_CAT_ID": 45727,
        "OBJECT_ID": "2020-037E",
        "OBJECT_NAME": "M2 PATHFINDER",
        "RA_OF_ASC_NODE": 332.4456,
        "REV_AT_EPOCH": 32148
    },
    {
        "ARG_OF_PERICENTER": 69.3171,
        "BSTAR": 0.00027705354,
        "CLASSIFICATION_TYPE": "U",
        "ECCENTRICITY": 0.00073029,
        "ELEMENT_SET_NO": 999,
        "EPHEMERIS_TYPE": 0,
        "EPOCH": "2026-05-20T23:00:53.047584",
        "INCLINATION": 97.8616,
        "MEAN_ANOMALY": 290.8858,
        "MEAN_MOTION": 15.42862153,
        "MEAN_MOTION_DDOT": 0,
        "MEAN_MOTION_DOT": 0.00012073,
        "NORAD_CAT_ID": 46504,
        "OBJECT_ID": "2020-068U",
        "OBJECT_NAME": "NETSAT-4",
        "RA_OF_ASC_NODE": 147.0338,
        "REV_AT_EPOCH": 31157
    },
    {
        "ARG_OF_PERICENTER": 82.1229,
        "BSTAR": 0.00030030796,
        "CLASSIFICATION_TYPE": "U",
        "ECCENTRICITY": 0.00073663,
        "ELEMENT_SET_NO": 999,
        "EPHEMERIS_TYPE": 0,
        "EPOCH": "2026-05-21T00:12:45.561024",
        "INCLINATION": 97.8666,
        "MEAN_ANOMALY": 278.0853,
        "MEAN_MOTION": 15.41639965,
        "MEAN_MOTION_DDOT": 0,
        "MEAN_MOTION_DOT": 0.0001257,
        "NORAD_CAT_ID": 46505,
        "OBJECT_ID": "2020-068V",
        "OBJECT_NAME": "NETSAT-3",
        "RA_OF_ASC_NODE": 145.3392,
        "REV_AT_EPOCH": 31149
    },
    {
        "ARG_OF_PERICENTER": 100.8529,
        "BSTAR": 0.00028706565,
        "CLASSIFICATION_TYPE": "U",
        "ECCENTRICITY": 0.00069771,
        "ELEMENT_SET_NO": 999,
        "EPHEMERIS_TYPE": 0,
        "EPOCH": "2026-05-21T11:03:58.188960",
        "INCLINATION": 97.8754,
        "MEAN_ANOMALY": 259.3498,
        "MEAN_MOTION": 15.33913256,
        "MEAN_MOTION_DDOT": 0,
        "MEAN_MOTION_DOT": 9.338e-05,
        "NORAD_CAT_ID": 46506,
        "OBJECT_ID": "2020-068W",
        "OBJECT_NAME": "NETSAT-1",
        "RA_OF_ASC_NODE": 140.4672,
        "REV_AT_EPOCH": 31120
    },
    {
        "ARG_OF_PERICENTER": 91.2398,
        "BSTAR": 0.00034676623,
        "CLASSIFICATION_TYPE": "U",
        "ECCENTRICITY": 0.00062084,
        "ELEMENT_SET_NO": 999,
        "EPHEMERIS_TYPE": 0,
        "EPOCH": "2026-05-21T11:42:07.165152",
        "INCLINATION": 97.8632,
        "MEAN_ANOMALY": 268.956,
        "MEAN_MOTION": 15.44735783,
        "MEAN_MOTION_DDOT": 0,
        "MEAN_MOTION_DOT": 0.00016128,
        "NORAD_CAT_ID": 46507,
        "OBJECT_ID": "2020-068X",
        "OBJECT_NAME": "NETSAT-2",
        "RA_OF_ASC_NODE": 147.4068,
        "REV_AT_EPOCH": 31161
    },
    {
        "ARG_OF_PERICENTER": 295.9766,
        "BSTAR": 0,
        "CLASSIFICATION_TYPE": "U",
        "ECCENTRICITY": 0.0008838,
        "ELEMENT_SET_NO": 999,
        "EPHEMERIS_TYPE": 0,
        "EPOCH": "2026-05-21T09:57:21.804480",
        "INCLINATION": 70.143,
        "MEAN_ANOMALY": 63.9983,
        "MEAN_MOTION": 6.42583336,
        "MEAN_MOTION_DDOT": 0,
        "MEAN_MOTION_DOT": -3e-08,
        "NORAD_CAT_ID": 53109,
        "OBJECT_ID": "2022-080E",
        "OBJECT_NAME": "GREENCUBE (IO-117)",
        "RA_OF_ASC_NODE": 307.5592,
        "REV_AT_EPOCH": 9034
    },
    {
        "ARG_OF_PERICENTER": 188.3908,
        "BSTAR": 0.00028430438,
        "CLASSIFICATION_TYPE": "U",
        "ECCENTRICITY": 0.00115673,
        "ELEMENT_SET_NO": 999,
        "EPHEMERIS_TYPE": 0,
        "EPOCH": "2026-05-21T13:36:33.326496",
        "INCLINATION": 97.5069,
        "MEAN_ANOMALY": 171.714,
        "MEAN_MOTION": 15.28761139,
        "MEAN_MOTION_DDOT": 0,
        "MEAN_MOTION_DOT": 7.887e-05,
        "NORAD_CAT_ID": 57176,
        "OBJECT_ID": "2023-091L",
        "OBJECT_NAME": "SITRO-AIS 5 (KATYS)",
        "RA_OF_ASC_NODE": 205.2252,
        "REV_AT_EPOCH": 16027
    },
    {
        "ARG_OF_PERICENTER": 191.7407,
        "BSTAR": 0.00025132688,
        "CLASSIFICATION_TYPE": "U",
        "ECCENTRICITY": 0.00116937,
        "ELEMENT_SET_NO": 999,
        "EPHEMERIS_TYPE": 0,
        "EPOCH": "2026-05-21T13:13:43.968576",
        "INCLINATION": 97.5076,
        "MEAN_ANOMALY": 168.3559,
        "MEAN_MOTION": 15.25359388,
        "MEAN_MOTION_DDOT": 0,
        "MEAN_MOTION_DOT": 6.277e-05,
        "NORAD_CAT_ID": 57192,
        "OBJECT_ID": "2023-091AC",
        "OBJECT_NAME": "SITRO-AIS 6 (CHIRKIN)",
        "RA_OF_ASC_NODE": 204.4669,
        "REV_AT_EPOCH": 16022
    },
    {
        "ARG_OF_PERICENTER": 183.8997,
        "BSTAR": 0.00031566238,
        "CLASSIFICATION_TYPE": "U",
        "ECCENTRICITY": 0.00108744,
        "ELEMENT_SET_NO": 999,
        "EPHEMERIS_TYPE": 0,
        "EPOCH": "2026-05-21T13:32:31.282944",
        "INCLINATION": 97.5064,
        "MEAN_ANOMALY": 176.2161,
        "MEAN_MOTION": 15.3131921,
        "MEAN_MOTION_DDOT": 0,
        "MEAN_MOTION_DOT": 9.488e-05,
        "NORAD_CAT_ID": 57193,
        "OBJECT_ID": "2023-091AD",
        "OBJECT_NAME": "SITRO-AIS 8 (ANOKHIN)",
        "RA_OF_ASC_NODE": 206.7054,
        "REV_AT_EPOCH": 16037
    },
    {
        "ARG_OF_PERICENTER": 192.7918,
        "BSTAR": 0.00024655653,
        "CLASSIFICATION_TYPE": "U",
        "ECCENTRICITY": 0.00115045,
        "ELEMENT_SET_NO": 999,
        "EPHEMERIS_TYPE": 0,
        "EPOCH": "2026-05-21T13:10:34.846752",
        "INCLINATION": 97.5074,
        "MEAN_ANOMALY": 167.3029,
        "MEAN_MOTION": 15.25060467,
        "MEAN_MOTION_DDOT": 0,
        "MEAN_MOTION_DOT": 6.101e-05,
        "NORAD_CAT_ID": 57194,
        "OBJECT_ID": "2023-091AE",
        "OBJECT_NAME": "SITRO-AIS 7 (FARTUSHNIY)",
        "RA_OF_ASC_NODE": 204.3033,
        "REV_AT_EPOCH": 16021
    }